INTELSAT 26 (IS-26)     
1 24732U 97007A   20026.99145505 -.00000000  00000-0  00000+0 0  9999
2 24732   8.8400  43.8346 0003443 301.2820 201.1629  1.00272530 83886
GALAXY 25 (G-25)        
1 24812U 97026A   20026.78306812  .00000148  00000-0  00000+0 0  9998
2 24812   1.5894  91.6612 0003565 215.0782 133.5336  1.00271235 82976
INTELSAT 5 (IS-5)       
1 24916U 97046A   20027.12031329  .00000084  00000-0  00000+0 0  9991
2 24916   5.4216  66.3539 0002255 237.6900  88.1109  1.00271259 82223
INTELSAT 805 (IS-805)   
1 25371U 98037A   20026.36848212 -.00000256  00000-0  00000-0 0  9993
2 25371   2.1208  88.9099 0009498 121.7146 160.6834  0.99476028 79142
GALAXY 11 (G-11)        
1 26038U 99071A   20027.19549774 -.00000168  00000-0  00000+0 0  9997
2 26038   0.8836  98.8938 0000743  21.3077 342.9813  1.00271936 73688
INTELSAT 9 (IS-9)       
1 26451U 00043A   20026.34370708 -.00000129  00000-0  00000+0 0  9999
2 26451   5.4092  66.5681 0004085 254.4341 277.0276  1.00106383 71441
INTELSAT 12 (IS-12)     
1 26590U 00068A   20027.14828972  .00000007  00000-0  00000+0 0  9994
2 26590   2.6034  87.4605 0005156 202.8775 313.1441  1.00272007 70404
INTELSAT 1R (IS-1R)     
1 26608U 00072A   20026.80793042 -.00000145  00000-0  00000+0 0  9994
2 26608   2.3905  87.0738 0001018 285.8664 200.5641  1.00272121 70253
INTELSAT 10 (IS-10)     
1 26766U 01019A   20026.79424194  .00000117  00000-0  00000+0 0  9996
2 26766   3.5709  79.9503 0002050 227.1587 151.8249  1.00270729 68535
INTELSAT 901 (IS-901)   
1 26824U 01024A   20027.16735369  .00000062  00000-0  00000+0 0  9997
2 26824   1.5728  91.5875 0001119 332.6978   6.5133  0.99283244 68195
INTELSAT 902 (IS-902)   
1 26900U 01039A   20026.33452037 -.00000012  00000-0  00000-0 0  9991
2 26900   0.2815  98.6302 0004858 224.8617 286.8144  1.00062688 67319
DIRECTV 4S              
1 26985U 01052A   20026.36426446 -.00000242  00000-0  00000-0 0  9992
2 26985   0.3662  95.6870 0003710 263.2377 237.3137  0.99267322 27909
INTELSAT 904 (IS-904)   
1 27380U 02007A   20026.77068062 -.00000220  00000-0  00000+0 0  9999
2 27380   1.1232  94.8252 0002476 214.9992  63.6066  1.00273458 65688
INTELSAT 903 (IS-903)   
1 27403U 02016A   20026.41130203 -.00000232  00000-0  00000-0 0  9997
2 27403   1.9531  89.9348 0000456 324.8005 186.9852  1.00269818 22272
DIRECTV 5 (TEMPO 1)     
1 27426U 02023A   20027.20669222 -.00000061  00000-0  00000+0 0  9995
2 27426   0.0176  65.0111 0003184 256.5491 128.6515  1.00272220 64924
INTELSAT 905 (IS-905)   
1 27438U 02027A   20026.45466231 -.00000191  00000-0  00000-0 0  9998
2 27438   0.9428  95.7944 0002376 209.6660 318.9015  1.00271513 64562
GALAXY 3C (G-3C)        
1 27445U 02030A   20026.25507527 -.00000158  00000-0  00000+0 0  9994
2 27445   0.0167  21.5065 0001649 319.7838 140.4726  1.00271134 64559
INTELSAT 906 (IS-906)   
1 27513U 02041A   20027.04625497  .00000009  00000-0  00000+0 0  9991
2 27513   0.0174 106.8436 0002385 219.4808 240.2514  1.00271460 63570
INTELSAT 907 (IS-907)   
1 27683U 03007A   20027.12976685 -.00000207  00000-0  00000+0 0  9990
2 27683   0.0084  32.9314 0002277 277.6026 194.5473  1.00272528 61995
GALAXY 12 (G-12)        
1 27715U 03013B   20027.15990010  .00000053  00000-0  00000+0 0  9992
2 27715   1.1604  93.9039 0001622 219.4274 101.0926  1.00271968 61616
GALAXY 23 (G-23)        
1 27854U 03034A   20027.20722948  .00000008  00000-0  00000+0 0  9998
2 27854   0.0145  85.7243 0003055 234.3771 119.4336  1.00272214 65150
GALAXY 13 (HORIZONS 1)  
1 27954U 03044A   20026.96657709  .00000043  00000-0  00000+0 0  9993
2 27954   0.0244 274.1471 0001447 281.4017 151.0769  1.00270404 59757
DIRECTV 7S              
1 28238U 04016A   20027.17188968 -.00000004  00000-0  00000+0 0  9997
2 28238   0.0199  72.5326 0003074 246.9718 109.2224  1.00270079 57660
INTELSAT 10-02          
1 28358U 04022A   20026.99170105 -.00000017  00000-0  00000+0 0  9994
2 28358   0.0181  71.4512 0002404 249.9348 160.3462  1.00272090 57237
XM-3 (RHYTHM)           
1 28626U 05008A   20026.32887696 -.00000212  00000-0  00000+0 0  9991
2 28626   0.0084 161.8486 0000578 242.2027 114.3006  1.00271591 54663
SPACEWAY 1              
1 28644U 05015A   20026.82896625  .00000098  00000-0  00000+0 0  9997
2 28644   0.7749  94.5917 0000786 250.7267 299.7711  1.00270607 54118
DIRECTV 8               
1 28659U 05019A   20027.21059306 -.00000121  00000-0  00000+0 0  9996
2 28659   0.0037  13.4210 0002756 293.6185 153.9439  1.00272050 53792
GALAXY 28 (G-28)        
1 28702U 05022A   20027.07668574 -.00000191  00000-0  00000+0 0  9993
2 28702   0.0158  65.3661 0002305 260.5633  98.4759  1.00271656 53432
GALAXY 14 (G-14)        
1 28790U 05030A   20027.20725101  .00000032  00000-0  00000+0 0  9997
2 28790   0.0428 291.9390 0002176  14.9393 128.6589  1.00272722 52919
GALAXY 15 (G-15)        
1 28884U 05041A   20027.12088242  .00000074  00000-0  00000+0 0  9998
2 28884   0.0363 267.5345 0001745  39.0025  89.8168  1.00271746 52232
SPACEWAY 2              
1 28903U 05046B   20027.18232073 -.00000131  00000-0  00000+0 0  9999
2 28903   0.0050 121.0854 0000667 265.0132  66.3531  1.00269026 52106
GALAXY 16 (G-16)        
1 29236U 06023A   20027.18232243 -.00000132  00000-0  00000+0 0  9995
2 29236   0.0172  73.3593 0002514 239.0682 140.1156  1.00272049 49877
DIRECTV 9S              
1 29494U 06043A   20027.14427552 -.00000118  00000-0  00000+0 0  9992
2 29494   0.0219 173.7756 0002810 141.5652 121.2632  1.00272025 48719
XM-4 (BLUES)            
1 29520U 06049A   20027.13259874 -.00000028  00000-0  00000+0 0  9997
2 29520   0.0101 131.5726 0000342 278.3350   8.3814  1.00272788 48601
GALAXY 17 (G-17)        
1 31307U 07016B   20027.19606668 -.00000179  00000-0  00000+0 0  9998
2 31307   0.0128  34.4698 0002703 296.5084 134.5208  1.00271520 46682
DIRECTV 10              
1 31862U 07032A   20027.14019128 -.00000109  00000-0  00000+0 0  9999
2 31862   0.0351 223.0379 0000173 148.9349  61.6200  1.00272198 46012
SPACEWAY 3              
1 32018U 07036A   20027.21769576 -.00000157  00000-0  00000+0 0  9997
2 32018   0.0151 120.4721 0000215 166.5149 182.4083  1.00274363 45731
INTELSAT 11 (IS-11)     
1 32253U 07044B   20027.12691688 -.00000274  00000-0  00000+0 0  9995
2 32253   0.0177  82.9038 0001338 248.7840 156.8968  1.00267828 45130
HORIZONS 2              
1 32388U 07063B   20027.09771646 -.00000187  00000-0  00000+0 0  9997
2 32388   0.0158  76.9967 0002960 252.7522 276.0903  1.00271200 44486
DIRECTV 11              
1 32729U 08013A   20027.21303917 -.00000130  00000-0  00000+0 0  9996
2 32729   0.0088 140.8986 0000382 264.8954  57.6356  1.00270656 43543
GALAXY 18 (G-18)        
1 32951U 08024A   20027.16081233  .00000020  00000-0  00000+0 0  9990
2 32951   0.0257  86.7722 0002756 225.6244 108.3894  1.00269828 42693
INTELSAT 25 (IS-25)     
1 33153U 08034A   20026.77024444 -.00000230  00000-0  00000+0 0  9997
2 33153   0.0208 120.5703 0002545 165.0187  85.6950  1.00272010 42247
GALAXY 19 (G-19)        
1 33376U 08045A   20027.18866142 -.00000144  00000-0  00000+0 0  9995
2 33376   0.0117  71.6064 0003230 252.1155 133.1350  1.00270047 41446
SIRIUS FM-5             
1 35493U 09034A   20027.20354282 -.00000205  00000-0  00000+0 0  9994
2 35493   0.0211 330.1056 0000703  88.1773  54.7711  1.00268722 38589
INTELSAT 14 (IS-14)     
1 36097U 09064A   20027.15104083 -.00000279  00000-0  00000+0 0  9995
2 36097   0.0234  95.8836 0002268 215.1464 184.2527  1.00269038 37307
INTELSAT 15 (IS-15)     
1 36106U 09067A   20026.37132663 -.00000192  00000-0  00000-0 0  9992
2 36106   0.0125  80.7721 0001974 237.2229  25.9412  1.00272246 17903
DIRECTV 12              
1 36131U 09075A   20027.21839924 -.00000108  00000-0  00000+0 0  9993
2 36131   0.0171 180.1671 0000282 193.0220  88.5933  1.00269484 36995
INTELSAT 16 (IS-16)     
1 36397U 10006A   20027.14721024 -.00000250  00000-0  00000+0 0  9994
2 36397   0.0156  89.5754 0001893 219.6756 153.4244  1.00272315 36347
XM-5                    
1 37185U 10053A   20026.61595778 -.00000211  00000-0  00000+0 0  9995
2 37185   0.0231  77.6496 0001900 348.2481 196.0053  1.00268243 34042
INTELSAT 17 (IS-17)     
1 37238U 10065B   20026.39146458 -.00000008  00000-0  00000-0 0  9994
2 37238   0.0332 115.1898 0002563 210.9936   5.8751  1.00271625 30038
INTELSAT NEW DAWN       
1 37392U 11016A   20027.17348459  .00000150  00000-0  00000+0 0  9990
2 37392   0.0280 127.9372 0001518 358.9072  94.3088  1.00261924 32121
INTELSAT 18 (IS-18)     
1 37834U 11056A   20026.81246668  .00000047  00000-0  00000+0 0  9999
2 37834   0.0129  80.5686 0001990 243.4701 273.9892  1.00273526 30450
INTELSAT 22 (IS-22)     
1 38098U 12011A   20026.75951998 -.00000064  00000-0  00000+0 0  9996
2 38098   0.0019 329.2115 0002549 353.2759 148.5384  1.00270676 28650
INTELSAT 19 (IS-19)     
1 38356U 12030A   20026.34078307 -.00000064  00000-0  00000-0 0  9994
2 38356   0.0165  90.4402 0002717 223.0048 100.3055  1.00271468 27051
INTELSAT 20 (IS-20)     
1 38740U 12043A   20026.25535581 -.00000031  00000-0  00000-0 0  9991
2 38740   0.0192  97.4131 0003047  85.5043 102.4986  1.00270821 27347
INTELSAT 21 (IS-21)     
1 38749U 12045A   20027.13936722 -.00000290  00000-0  00000+0 0  9998
2 38749   0.0241  91.8598 0001539  70.5232 315.6860  1.00268344 27249
INTELSAT 23 (IS-23)     
1 38867U 12057A   20026.76596986 -.00000291  00000-0  00000+0 0  9995
2 38867   0.0148  75.7953 0001637 235.7146  36.7244  1.00272856 26711
SIRIUS FM-6             
1 39360U 13058A   20027.12809931 -.00000022  00000-0  00000+0 0  9996
2 39360   0.0175  58.8280 0001255  97.0135 259.9755  1.00272441 22956
INTELSAT 30 (IS-30)     
1 40271U 14062A   20026.25507527 -.00000157  00000-0  00000-0 0  9994
2 40271   0.0171  62.6336 0002254  51.3251   7.7978  1.00270994 19236
INTELSAT 34 (IS-34)     
1 40874U 15039A   20027.12438704 -.00000291  00000-0  00000+0 0  9993
2 40874   0.0187  60.9643 0000427 126.0802 288.0839  1.00271690 16271
INTELSAT 31 (IS-31)     
1 41581U 16035A   20027.04470381 -.00000157  00000-0  00000+0 0  9995
2 41581   0.0190 112.5352 0002710  78.7532 215.5481  1.00276050 13306
INTELSAT 36 (IS-36)     
1 41747U 16053A   20026.86201674 -.00000030  00000-0  00000-0 0  9996
2 41747   0.0101  53.7533 0001100 315.4956 135.1624  1.00272506 12578
INTELSAT 33E (IS-33E)   
1 41748U 16053B   20027.04955705  .00000044  00000-0  00000+0 0  9992
2 41748   0.0146 354.7909 0001504 295.2250 273.5864  1.00271848 12828
INTELSAT 32E (IS-32E)   
1 41945U 17007B   20026.69618103 -.00000275  00000-0  00000-0 0  9997
2 41945   0.0175  66.3689 0000639 120.7622 145.7399  1.00271868 10826
INTELSAT 35E (IS-35E)   
1 42818U 17041A   20027.13972439 -.00000243  00000-0  00000+0 0  9994
2 42818   0.0434 230.4015 0001641  88.9434 182.3293  1.00272742  9449
INTELSAT 37E (IS-37E)   
1 42950U 17059A   20026.84474400 -.00000147  00000-0  00000-0 0  9996
2 42950   0.0154  77.3574 0002186 213.8142 120.5054  1.00271938  8650
AZERSPACE 2 (IS-38)     
1 43632U 18074A   20027.00086084  .00000131  00000-0  00000+0 0  9999
2 43632   0.0182  69.5863 0001183 236.5906 224.9821  1.00271536  5101
HORIZONS 3E             
1 43633U 18074B   20027.09725664 -.00000036  00000-0  00000+0 0  9998
2 43633   0.0041 266.3990 0000193 318.2913 105.1319  1.00272437  4966
INTELSAT 39 (IS-39)     
1 44476U 19049B   20026.86070819  .00000028  00000-0  00000-0 0  9997
2 44476   0.0181  62.1205 0000272  14.1708  61.0905  1.00271421  1791